[{"OBJECT_NAME":"STARLINK-31815","OBJECT_ID":"2024-093V","EPOCH":"2026-03-09T10:15:07.326432","MEAN_MOTION":15.2757693,"ECCENTRICITY":0.00013589,"INCLINATION":43.0003,"RA_OF_ASC_NODE":210.5145,"ARG_OF_PERICENTER":281.4002,"MEAN_ANOMALY":78.6697,"EPHEMERIS_TYPE":0,"CLASSIFICATION_TYPE":"U","NORAD_CAT_ID":59801,"ELEMENT_SET_NO":999,"REV_AT_EPOCH":10265,"BSTAR":3.6342236e-5,"MEAN_MOTION_DOT":7.38e-6,"MEAN_MOTION_DDOT":0},{"OBJECT_NAME":"FLOCK 4G-25","OBJECT_ID":"2025-009AP","EPOCH":"2026-03-09T17:53:50.680608","MEAN_MOTION":15.27424196,"ECCENTRICITY":8.276e-5,"INCLINATION":97.4049,"RA_OF_ASC_NODE":151.4141,"ARG_OF_PERICENTER":316.3151,"MEAN_ANOMALY":43.8023,"EPHEMERIS_TYPE":0,"CLASSIFICATION_TYPE":"U","NORAD_CAT_ID":62646,"ELEMENT_SET_NO":999,"REV_AT_EPOCH":6373,"BSTAR":0.00038902475,"MEAN_MOTION_DOT":0.00010373,"MEAN_MOTION_DDOT":0}]
